NORAD_CAT_ID,OBJECT_NAME,OBJECT_TYPE,EPOCH,MEAN_MOTION,ECCENTRICITY,INCLINATION,RA_OF_ASC_NODE,ARG_OF_PERICENTER,MEAN_ANOMALY,BSTAR,MEAN_MOTION_DOT,MEAN_MOTION_DDOT,TLE_LINE0,TLE_LINE1,TLE_LINE2,SEMIMAJOR_AXIS,PERIOD,APOGEE,PERIGEE,DECAYED
51888.0,STARLINK-3536,PAYLOAD,2022-12-30 20:50:20,15.08849832,0.0002647,53.2151,188.2103,44.71100000000001,315.4096,0.00017869,2.557e-05,0.0,0 STARLINK-3536,1 51888U 22022AN  22364.86829030  .00002557  00000-0  17869-3 0  9994,2 51888  53.2151 188.2103 0002647  44.7110 315.4096 15.08849832 47409,6917.85,95.437,541.5459999999998,537.884,0.0
51888.0,STARLINK-3536,PAYLOAD,2022-12-31 19:05:44,15.0884318,0.0002705,53.2151,184.0468,46.7935,313.3283,7.528399999999999e-05,9.1e-06,0.0,0 STARLINK-3536,1 51888U 22022AN  22365.79565411  .00000910  00000-0  75284-4 0  9994,2 51888  53.2151 184.0468 0002705  46.7935 313.3283 15.08843180 47549,6917.871,95.437,541.607,537.864,0.0
51888.0,STARLINK-3536,PAYLOAD,2023-01-01 04:38:03,15.08842479,0.0002722,53.2157,182.2628,46.3723,313.7494,3.7176e-05,3.03e-06,0.0,0 STARLINK-3536,1 51888U 22022AN  23001.19309426  .00000303  00000-0  37176-4 0  9992,2 51888  53.2157 182.2628 0002722  46.3723 313.7494 15.08842479 47608,6917.873000000001,95.437,541.621,537.855,0.0
51888.0,STARLINK-3536,PAYLOAD,2023-01-01 20:31:55,15.08833771,0.0002686,53.2162,179.2894,47.2841,312.8377,-8.8211e-05,-1.692e-05,0.0,0 STARLINK-3536,1 51888U 22022AN  23001.85550386 -.00001692  00000-0 -88211-4 0  9998,2 51888  53.2162 179.2894 0002686  47.2841 312.8377 15.08833771 47701,6917.899,95.438,541.623,537.906,0.0
51888.0,STARLINK-3536,PAYLOAD,2023-01-02 15:36:32,15.08834944,0.000265,53.2166,175.7211,49.7649,310.3575,3.2512e-05,2.29e-06,0.0,0 STARLINK-3536,1 51888U 22022AN  23002.65038138  .00000229  00000-0  32512-4 0  9999,2 51888  53.2166 175.7211 0002650  49.7649 310.3575 15.08834944 47822,6917.896,95.438,541.594,537.928,0.0
51888.0,STARLINK-3536,PAYLOAD,2023-01-03 04:19:37,15.08840521,0.0002718,53.2164,173.3418,47.6911,312.4311,5.1272e-05,5.28e-06,0.0,0 STARLINK-3536,1 51888U 22022AN  23003.18029908  .00000528  00000-0  51272-4 0  9999,2 51888  53.2164 173.3418 0002718  47.6911 312.4311 15.08840521 47905,6917.879,95.438,541.624,537.864,0.0
51888.0,STARLINK-3536,PAYLOAD,2023-01-04 13:42:43,15.08842832,0.0002621,53.216,167.097,46.5751,313.5459,6.2236e-05,7.02e-06,0.0,0 STARLINK-3536,1 51888U 22022AN  23004.57133940  .00000702  00000-0  62236-4 0  9991,2 51888  53.2160 167.0970 0002621  46.5751 313.5459 15.08842832 48113,6917.871999999999,95.437,541.55,537.924,0.0
51888.0,STARLINK-3536,PAYLOAD,2023-01-04 16:53:29,15.08845328,0.0002615,53.2159,166.5024,46.9647,313.1564,8.100699999999999e-05,1.001e-05,0.0,0 STARLINK-3536,1 51888U 22022AN  23004.70381703  .00001001  00000-0  81007-4 0  9998,2 51888  53.2159 166.5024 0002615  46.9647 313.1564 15.08845328 48134,6917.864000000001,95.437,541.538,537.92,0.0
51888.0,STARLINK-3536,PAYLOAD,2023-01-05 04:01:10,15.08854015,0.0002663,53.216,164.4208,47.6597,312.4621,0.00013956,1.934e-05,0.0,0 STARLINK-3536,1 51888U 22022AN  23005.16748775  .00001934  00000-0  13956-3 0  9997,2 51888  53.2160 164.4208 0002663  47.6597 312.4621 15.08854015 48209,6917.8380000000025,95.437,541.545,537.86,0.0
51888.0,STARLINK-3536,PAYLOAD,2023-01-05 16:44:15,15.08858866,0.0003008,53.216,162.0419,51.5185,308.6077,0.00013589,1.876e-05,0.0,0 STARLINK-3536,1 51888U 22022AN  23005.69740102  .00001876  00000-0  13589-3 0  9998,2 51888  53.2160 162.0419 0003008  51.5185 308.6077 15.08858866 48286,6917.823,95.436,541.769,537.607,0.0
51888.0,STARLINK-3536,PAYLOAD,2023-01-06 19:45:50,15.08835967,0.000268,53.2162,156.9867,47.7009,312.421,-4.294600000000001e-05,-9.72e-06,0.0,0 STARLINK-3536,1 51888U 22022AN  23006.82350031 -.00000972  00000-0 -42946-4 0  9990,2 51888  53.2162 156.9867 0002680  47.7009 312.4210 15.08835967 48452,6917.893,95.438,541.612,537.904,0.0
51888.0,STARLINK-3536,PAYLOAD,2023-01-07 19:36:37,15.08842961,0.0002593,53.2155,152.5264,35.7591,324.3575,-0.00012234,-2.235e-05,0.0,0 STARLINK-3536,1 51888U 22022AN  23007.81709801 -.00002235  00000-0 -12234-3 0  9993,2 51888  53.2155 152.5264 0002593  35.7591 324.3575 15.08842961 48608,6917.871,95.437,541.53,537.943,0.0
51888.0,STARLINK-3536,PAYLOAD,2023-01-08 01:58:09,15.08847642,0.0002623,53.2156,151.3358,33.0633,327.0522,-0.00029383,-4.963e-05,0.0,0 STARLINK-3536,1 51888U 22022AN  23008.08205811 -.00004963  00000-0 -29383-3 0  9998,2 51888  53.2156 151.3358 0002623  33.0633 327.0522 15.08847642 48649,6917.857,95.437,541.5369999999998,537.9069999999998,0.0
51888.0,STARLINK-3536,PAYLOAD,2023-01-09 11:21:16,15.08839082,0.0002444,53.2173,145.0931,36.5887,323.5272,0.00012801,1.749e-05,0.0,0 STARLINK-3536,1 51888U 22022AN  23009.47310204  .00001749  00000-0  12801-3 0  9999,2 51888  53.2173 145.0931 0002444  36.5887 323.5272 15.08839082 48850,6917.883000000002,95.438,541.439,538.057,0.0
51888.0,STARLINK-3536,PAYLOAD,2023-01-09 16:07:25,15.08839132,0.0002544,53.2152,144.1989,33.1877,326.9274,0.00012141,1.644e-05,0.0,0 STARLINK-3536,1 51888U 22022AN  23009.67182301  .00001644  00000-0  12141-3 0  9997,2 51888  53.2152 144.1989 0002544  33.1877 326.9274 15.08839132 48881,6917.883000000002,95.438,541.508,537.988,0.0
51888.0,STARLINK-3536,PAYLOAD,2023-01-10 12:47:26,15.08838039,0.0002557,53.2159,140.3337,36.3963,323.7203,7.107399999999999e-05,8.43e-06,0.0,0 STARLINK-3536,1 51888U 22022AN  23010.53294685  .00000843  00000-0  71074-4 0  9994,2 51888  53.2159 140.3337 0002557  36.3963 323.7203 15.08838039 49016,6917.886,95.438,541.52,537.982,0.0
51888.0,STARLINK-3536,PAYLOAD,2023-01-11 14:13:37,15.08843708,0.0002382,53.22,135.5795,43.64100000000001,316.4770000000001,-0.00015315,-2.725e-05,0.0,0 STARLINK-3536,1 51888U 22022AN  23011.59279125 -.00002725  00000-0 -15315-3 0  9991,2 51888  53.2200 135.5795 0002382  43.6410 316.4770 15.08843708 49175,6917.8690000000015,95.437,541.382,538.086,0.0
51888.0,STARLINK-3536,PAYLOAD,2023-01-11 15:48:59,15.08887687,0.0002391,53.2153,135.2802,33.5237,326.5907,-0.00073897,-0.00012046,0.0,0 STARLINK-3536,1 51888U 22022AN  23011.65902084 -.00012046  00000-0 -73897-3 0  9991,2 51888  53.2153 135.2802 0002391  33.5237 326.5907 15.08887687 49182,6917.735,95.435,541.254,537.946,0.0
51888.0,STARLINK-3536,PAYLOAD,2023-01-12 01:21:19,15.08831542,0.0002413,53.2148,133.4969,44.4202,315.6983,5.1887e-05,5.37e-06,0.0,0 STARLINK-3536,1 51888U 22022AN  23012.05647748  .00000537  00000-0  51887-4 0  9995,2 51888  53.2148 133.4969 0002413  44.4202 315.6983 15.08831542 49247,6917.906,95.438,541.441,538.102,0.0
51888.0,STARLINK-3536,PAYLOAD,2023-01-12 15:39:47,15.08834372,0.0002343,53.2156,130.81799999999998,46.7557,313.363,0.00013,1.781e-05,0.0,0 STARLINK-3536,1 51888U 22022AN  23012.65263476  .00001781  00000-0  13000-3 0  9999,2 51888  53.2156 130.8180 0002343  46.7557 313.3630 15.08834372 49330,6917.898,95.438,541.383,538.1419999999998,0.0
51888.0,STARLINK-3536,PAYLOAD,2023-01-13 13:55:11,15.08840975,0.000227,53.2141,126.6526,62.4252,297.697,0.0001557,2.191e-05,0.0,0 STARLINK-3536,1 51888U 22022AN  23013.57999391  .00002191  00000-0  15570-3 0  9993,2 51888  53.2141 126.6526 0002270  62.4252 297.6970 15.08840975 49479,6917.877,95.437,541.313,538.172,0.0
51888.0,STARLINK-3536,PAYLOAD,2023-01-13 15:30:34,15.08841892,0.0002281,53.2151,126.3565,57.3673,302.7539,0.00016904,2.403e-05,0.0,0 STARLINK-3536,1 51888U 22022AN  23013.64623379  .00002403  00000-0  16904-3 0  9999,2 51888  53.2151 126.3565 0002281  57.3673 302.7539 15.08841892 49481,6917.875,95.437,541.318,538.1619999999999,0.0
51888.0,STARLINK-3536,PAYLOAD,2023-01-14 15:21:20,15.08862118,0.0002115,53.2162,121.8961,57.4961,302.6236,0.00026777,3.978e-05,0.0,0 STARLINK-3536,1 51888U 22022AN  23014.63981851  .00003978  00000-0  26777-3 0  9998,2 51888  53.2162 121.8961 0002115  57.4961 302.6236 15.08862118 49634,6917.813,95.436,541.141,538.215,0.0
51888.0,STARLINK-3536,PAYLOAD,2023-01-15 13:36:46,15.08831018,0.0001851,53.2153,117.7344,67.0696,293.0492,-8.2943e-05,-1.608e-05,0.0,0 STARLINK-3536,1 51888U 22022AN  23015.56721046 -.00001608  00000-0 -82943-4 0  9997,2 51888  53.2153 117.7344 0001851  67.0696 293.0492 15.08831018 49778,6917.908,95.438,541.053,538.492,0.0
51888.0,STARLINK-3536,PAYLOAD,2023-01-15 15:12:09,15.08831415,0.0001766,53.2151,117.4344,78.1201,281.9989,-9.8598e-05,-1.857e-05,0.0,0 STARLINK-3536,1 51888U 22022AN  23015.63344457 -.00001857  00000-0 -98598-4 0  9991,2 51888  53.2151 117.4344 0001766  78.1201 281.9989 15.08831415 49782,6917.906999999999,95.438,540.993,538.55,0.0
51888.0,STARLINK-3536,PAYLOAD,2023-01-15 23:09:05,15.08835406,0.0001719,53.2147,115.9492,71.7529,288.365,-2.8253e-05,-7.38e-06,0.0,0 STARLINK-3536,1 51888U 22022AN  23015.96464534 -.00000738  00000-0 -28253-4 0  9994,2 51888  53.2147 115.9492 0001719  71.7529 288.3650 15.08835406 49830,6917.894,95.438,540.9490000000001,538.57,0.0
51888.0,STARLINK-3536,PAYLOAD,2023-01-16 11:52:09,15.08848719,0.0001913,53.2155,113.5691,53.0971,307.0196,2.8858e-05,1.71e-06,0.0,0 STARLINK-3536,1 51888U 22022AN  23016.49455837  .00000171  00000-0  28858-4 0  9999,2 51888  53.2155 113.5691 0001913  53.0971 307.0196 15.08848719 49918,6917.854,95.437,541.0419999999999,538.395,0.0
51888.0,STARLINK-3536,PAYLOAD,2023-01-16 16:38:18,15.08862762,0.0001656,53.2158,112.6775,72.3696,287.7477,0.00024049,3.544e-05,0.0,0 STARLINK-3536,1 51888U 22022AN  23016.69326875  .00003544  00000-0  24049-3 0  9994,2 51888  53.2158 112.6775 0001656  72.3696 287.7477 15.08862762 49949,6917.811,95.436,540.821,538.53,0.0
51888.0,STARLINK-3536,PAYLOAD,2023-01-16 22:59:52,15.08822539,0.0001665999999999,53.2154,111.4896,73.9493,286.1683,-0.00032607,-5.471e-05,0.0,0 STARLINK-3536,1 51888U 22022AN  23016.95825004 -.00005471  00000-0 -32607-3 0  9993,2 51888  53.2154 111.4896 0001666  73.9493 286.1683 15.08822539 49983,6917.934,95.439,540.951,538.646,0.0
